{"phone": [{"title": "Tel", "num": "020 8363 4156"}, {"title": "Tel", "num": "020 8363 4156"}, {"title": "Tel", "num": "020 8363 4156"}, {"title": "Phone:", "num": "020 8363 4156"}, {"title": "Tel", "num": "020 8363 4156"}, {"title": "Tel", "num": "020 8363 4156"}, {"title": "Tel", "num": "020 8363 4156"}, {"title": "Tel", "num": "020 8363 4156"}, {"title": "Phone:", "num": "020 8363 4156"}, {"title": "Tel", "num": "020 8363 4156"}, {"title": "Tel", "num": "020 8363 4156"}, {"title": "Tel", "num": "020 8363 4156"}], "openingtimepage": [{"title": "Opening Hours", "time": "Monday\n08:00-18:30\nTuesday\n08:00-18:30\nWednesday\n08:00-18:30\nThursday\n08:00-18:30\nFriday\n08:00-18:30\n"}, {"title": "", "time": "Important -\nThe Extended Access service is available for prebooked appointments only and will run on weekday evenings 6:30-8pm, Saturdays 8am-8pm and Sundays 8am-8pm.\n"}, {"title": "", "time": "Important -\nThe Extended Access service is available for prebooked appointments only and will run on weekday evenings 6:30-8pm, Saturdays 8am-8pm and Sundays 8am-8pm.\n"}, {"title": "", "time": "Important -\nThe Extended Access service is available for prebooked appointments only and will run on weekday evenings 6:30-8pm, Saturdays 8am-8pm and Sundays 8am-8pm.\n"}, {"title": "", "time": "Important -\nThe Extended Access service is available for prebooked appointments only and will run on weekday evenings 6:30-8pm, Saturdays 8am-8pm and Sundays 8am-8pm.\n"}, {"title": "", "time": "Important -\nThe Extended Access service is available for prebooked appointments only and will run on weekday evenings 6:30-8pm, Saturdays 8am-8pm and Sundays 8am-8pm.\n"}, {"title": "", "time": "Important -\nThe Extended Access service is available for prebooked appointments only and will run on weekday evenings 6:30-8pm, Saturdays 8am-8pm and Sundays 8am-8pm.\n"}], "contactpage": [{"postcode": "EN2 6NL", "address": "Enfield\n105-109 Chase Side\n", "contact": ""}, {"postcode": "We are relocating to 105-109 Chase Side, Enfield, EN2 6NL on the 13th of December 2021", "address": "We are relocating to 105-109 Chase Side, Enfield, EN2 6NL on the 13th of December 2021\nPractice Relocation\n", "contact": ""}, {"postcode": "EN2 6NL", "address": "Enfield\n105-109 Chase Side\n", "contact": ""}, {"postcode": "EN2 6NL", "address": "Enfield\n105-109 Chase Side\n", "contact": ""}, {"postcode": "EN2 6NL", "address": "Enfield\n105-109 Chase Side\nWhite Lodge Medical Practice\n", "contact": "Phone:\n020 8363 4156\n"}, {"postcode": "We are relocating to 105-109 Chase Side, Enfield, EN2 6NL on the 13th of December 2021", "address": "We are relocating to 105-109 Chase Side, Enfield, EN2 6NL on the 13th of December 2021\nPractice Relocation\n", "contact": ""}, {"postcode": "EN2 6NL", "address": "Enfield\n105-109 Chase Side\n", "contact": ""}, {"postcode": "EN2 6NL", "address": "Enfield\n105-109 Chase Side\n", "contact": ""}, {"postcode": "We are relocating to 105-109 Chase Side, Enfield, EN2 6NL on the 13th of December 2021", "address": "We are relocating to 105-109 Chase Side, Enfield, EN2 6NL on the 13th of December 2021\nPractice Relocation\n", "contact": ""}, {"postcode": "EN2 6NL", "address": "Enfield\n105-109 Chase Side\n", "contact": ""}, {"postcode": "EN2 6NL", "address": "Enfield\n105-109 Chase Side\n", "contact": ""}, {"postcode": "EN2 6NL", "address": "Enfield\n105-109 Chase Side\nWhite Lodge Medical Practice\n", "contact": "Phone:\n020 8363 4156\n"}, {"postcode": "We are relocating to 105-109 Chase Side, Enfield, EN2 6NL on the 13th of December 2021", "address": "We are relocating to 105-109 Chase Side, Enfield, EN2 6NL on the 13th of December 2021\nPractice Relocation\n", "contact": ""}, {"postcode": "EN2 6NL", "address": "Enfield\n105-109 Chase Side\n", "contact": ""}, {"postcode": "EN2 6NL", "address": "Enfield\n105-109 Chase Side\n", "contact": ""}, {"postcode": "We are relocating to 105-109 Chase Side, Enfield, EN2 6NL on the 13th of December 2021", "address": "We are relocating to 105-109 Chase Side, Enfield, EN2 6NL on the 13th of December 2021\nPractice Relocation\n", "contact": ""}, {"postcode": "EN2 6NL", "address": "Enfield\n105-109 Chase Side\n", "contact": ""}]}